{
    "links": {
        "self": "http://www.neowsapp.com/rest/v1/neo/3884100?api_key=iIulBulltgU6a56xZRHN4H3l9WmuAYTsLGpBGhQ2"
    },
    "id": "3884100",
    "neo_reference_id": "3884100",
    "name": "(2019 UY9)",
    "designation": "2019 UY9",
    "nasa_jpl_url": "http://ssd.jpl.nasa.gov/sbdb.cgi?sstr=3884100",
    "absolute_magnitude_h": 20.3,
    "estimated_diameter": {
        "kilometers": {
            "estimated_diameter_min": 0.2315021222,
            "estimated_diameter_max": 0.5176544822
        },
        "meters": {
            "estimated_diameter_min": 231.5021222103,
            "estimated_diameter_max": 517.6544821978
        },
        "miles": {
            "estimated_diameter_min": 0.1438487052,
            "estimated_diameter_max": 0.3216554833
        },
        "feet": {
            "estimated_diameter_min": 759.5214226325,
            "estimated_diameter_max": 1698.3415313737
        }
    },
    "is_potentially_hazardous_asteroid": false,
    "close_approach_data": [
        {
            "close_approach_date": "2012-10-01",
            "close_approach_date_full": "2012-Oct-01 11:42",
            "epoch_date_close_approach": 1349091720000,
            "relative_velocity": {
                "kilometers_per_second": "10.4853211153",
                "kilometers_per_hour": "37747.1560149587",
                "miles_per_hour": "23454.6148027392"
            },
            "miss_distance": {
                "astronomical": "1.972761534",
                "lunar": "767.404236726",
                "kilometers": "295120923.50433258",
                "miles": "183379638.438766404"
            },
            "orbiting_body": "Juptr"
        },
        {
            "close_approach_date": "2015-10-09",
            "close_approach_date_full": "2015-Oct-09 22:58",
            "epoch_date_close_approach": 1444431480000,
            "relative_velocity": {
                "kilometers_per_second": "32.9860475026",
                "kilometers_per_hour": "118749.7710093366",
                "miles_per_hour": "73786.4896585514"
            },
            "miss_distance": {
                "astronomical": "0.4393856834",
                "lunar": "170.9210308426",
                "kilometers": "65731162.345134358",
                "miles": "40843450.3453078204"
            },
            "orbiting_body": "Earth"
        },
        {
            "close_approach_date": "2019-09-25",
            "close_approach_date_full": "2019-Sep-25 22:03",
            "epoch_date_close_approach": 1569448980000,
            "relative_velocity": {
                "kilometers_per_second": "22.8341037968",
                "kilometers_per_hour": "82202.773668404",
                "miles_per_hour": "51077.6067830147"
            },
            "miss_distance": {
                "astronomical": "0.399945189",
                "lunar": "155.578678521",
                "kilometers": "59830948.39114743",
                "miles": "37177227.399317334"
            },
            "orbiting_body": "Earth"
        },
        {
            "close_approach_date": "2023-06-08",
            "close_approach_date_full": "2023-Jun-08 20:36",
            "epoch_date_close_approach": 1686256560000,
            "relative_velocity": {
                "kilometers_per_second": "27.5449766229",
                "kilometers_per_hour": "99161.9158422708",
                "miles_per_hour": "61615.3582076599"
            },
            "miss_distance": {
                "astronomical": "0.0474319185",
                "lunar": "18.4510162965",
                "kilometers": "7095713.977613595",
                "miles": "4409072.214293811"
            },
            "orbiting_body": "Venus"
        },
        {
            "close_approach_date": "2024-07-26",
            "close_approach_date_full": "2024-Jul-26 06:55",
            "epoch_date_close_approach": 1721976900000,
            "relative_velocity": {
                "kilometers_per_second": "10.1425727148",
                "kilometers_per_hour": "36513.2617733304",
                "miles_per_hour": "22687.9209057674"
            },
            "miss_distance": {
                "astronomical": "1.9675548633",
                "lunar": "765.3788418237",
                "kilometers": "294342016.657821171",
                "miles": "182895648.1672713198"
            },
            "orbiting_body": "Juptr"
        }
    ],
    "orbital_data": {
        "orbit_id": "4",
        "orbit_determination_date": "2019-12-30 05:12:03",
        "first_observation_date": "2019-10-24",
        "last_observation_date": "2019-11-21",
        "data_arc_in_days": 28,
        "observations_used": 25,
        "orbit_uncertainty": "7",
        "minimum_orbit_intersection": ".204143",
        "jupiter_tisserand_invariant": "2.837",
        "epoch_osculation": "2459000.5",
        "eccentricity": ".7511776573449306",
        "semi_major_axis": "2.491105667617323",
        "inclination": "34.97374364530002",
        "ascending_node_longitude": "34.68770897507714",
        "orbital_period": "1436.106512271108",
        "perihelion_distance": ".619842748017863",
        "perihelion_argument": "233.5600749174961",
        "aphelion_distance": "4.362368587216783",
        "perihelion_time": "2458691.031818256177",
        "mean_anomaly": "77.57679843091236",
        "mean_motion": ".2506777853341001",
        "equinox": "J2000",
        "orbit_class": {
            "orbit_class_type": "APO",
            "orbit_class_description": "Near-Earth asteroid orbits which cross the Earth’s orbit similar to that of 1862 Apollo",
            "orbit_class_range": "a (semi-major axis) > 1.0 AU; q (perihelion) < 1.017 AU"
        }
    },
    "is_sentry_object": false
}